[{"OBJECT_NAME":"STARLINK-4624","OBJECT_ID":"2022-105AN","EPOCH":"2026-03-09T16:22:04.883808","MEAN_MOTION":15.01270773,"ECCENTRICITY":0.00031749,"INCLINATION":97.604,"RA_OF_ASC_NODE":310.272,"ARG_OF_PERICENTER":79.9673,"MEAN_ANOMALY":280.1909,"EPHEMERIS_TYPE":0,"CLASSIFICATION_TYPE":"U","NORAD_CAT_ID":53684,"ELEMENT_SET_NO":999,"REV_AT_EPOCH":19321,"BSTAR":0.00016885396,"MEAN_MOTION_DOT":2.112e-5,"MEAN_MOTION_DDOT":0},{"OBJECT_NAME":"SL-12 DEB","OBJECT_ID":"2010-041AF","EPOCH":"2026-03-09T03:16:54.337728","MEAN_MOTION":4.57463421,"ECCENTRICITY":0.54745162,"INCLINATION":65.3042,"RA_OF_ASC_NODE":69.422,"ARG_OF_PERICENTER":272.5094,"MEAN_ANOMALY":29.1738,"EPHEMERIS_TYPE":0,"CLASSIFICATION_TYPE":"U","NORAD_CAT_ID":44560,"ELEMENT_SET_NO":999,"REV_AT_EPOCH":10610,"BSTAR":0.0021213978,"MEAN_MOTION_DOT":6.24e-6,"MEAN_MOTION_DDOT":0}]
